2024-023C               
1 58907U 24023C   24048.18495040  .00004956  00000+0  53962-3 0  9990
2 58907  50.0018  10.6711 0007564 325.7652  34.2801 14.89447886  2114
2024-023D               
1 58908U 24023D   24048.18446562  .00005036  00000+0  54716-3 0  9994
2 58908  49.9934  10.6581 0008069 326.7226  33.3206 14.89498627  2111
2024-023E               
1 58909U 24023E   24048.17612969  .00006816  00000+0  70852-3 0  9996
2 58909  50.0063  10.6221 0010885 300.3138  59.6727 14.90783039  2113
2024-023F               
1 58910U 24023F   24048.18291274  .00007948  00000+0  84446-3 0  9992
2 58910  49.9904  10.6449 0008930 330.1584  29.8846 14.89701432  2118
2024-023G               
1 58911U 24023G   24048.18072581  .00006614  00000+0  70326-3 0  9992
2 58911  50.0077  10.6524 0008822 337.3436  22.7115 14.89920461  2118
2024-023H               
1 58912U 24023H   24048.17954860  .00007516  00000+0  79293-3 0  9995
2 58912  49.9917  10.6255 0009852 338.2530  21.7991 14.90056029  2112
2024-023J               
1 58913U 24023J   24048.17162158  .00006993  00000+0  71682-3 0  9999
2 58913  50.0065  10.5939 0008008 314.1987  45.8297 14.91329577  2117
2024-023K               
1 58914U 24023K   24048.18855067  .00006258  00000+0  69548-3 0  9991
2 58914  49.9967  10.6873 0017299   6.6749 353.4419 14.88137033  2119
2024-023L               
1 58915U 24023L   24048.17690903  .00007643  00000+0  80033-3 0  9998
2 58915  50.0017  10.6211 0010601 343.8686  16.1916 14.90335617  2117
2024-023M               
1 58916U 24023M   24048.17875537  .00001791  00000+0  31634-3 0  9998
2 58916  49.8987  12.4812 0099300 284.8389  74.1560 14.68892708  2083
2024-024A               
1 58917U 24024A   24048.14977662  .00021217  00000+0  10542-2 0  9998
2 58917  97.4030 125.3357 0008618 226.9435 133.1078 15.17649404  2135
2024-024B               
1 58918U 24024B   24048.15059616  .00014321  00000+0  71704-3 0  9996
2 58918  97.4037 125.3355 0010230 229.8529 130.1809 15.17451259  2127
2024-024C               
1 58919U 24024C   24048.14749746  .00018460  00000+0  91257-3 0  9999
2 58919  97.4034 125.3386 0009358 238.0822 121.9502 15.17849401  2124
2024-024D               
1 58920U 24024D   24048.14669385  .00021825  00000+0  10735-2 0  9991
2 58920  97.4048 125.3425 0009308 239.1199 120.9120 15.17990621  2125
2024-024E               
1 58921U 24024E   24048.14813879  .00007299  00000+0  36576-3 0  9992
2 58921  97.3985 125.3286 0009956 237.3656 122.6618 15.17614889  2127
2024-024F               
1 58922U 24024F   24048.14634656  .00016604  00000+0  81899-3 0  9995
2 58922  97.3984 125.3301 0010231 240.9038 119.1172 15.17943500  2128
2024-024G               
1 58923U 24024G   24048.14531290  .00021952  00000+0  10749-2 0  9993
2 58923  97.4062 125.3473 0010173 242.0881 117.9323 15.18139584  2125
2024-024H               
1 58924U 24024H   24048.01376356  .00018496  00000+0  90830-3 0  9999
2 58924  97.4034 125.2117 0010640 240.9558 119.0611 15.18070313 38829
2024-024J               
1 58925U 24024J   24048.14586768  .00012890  00000+0  63662-3 0  9999
2 58925  97.4036 125.3416 0010978 241.3248 118.6883 15.17949696 38835
2024-024K               
1 58926U 24024K   24047.88067107  .00442105  23184-5  77480-3 0  9994
2 58926  97.4140 126.0621 0235391 286.8048  70.7513 15.67618992 38855
2024-024L               
1 58927U 24024L   24048.14397444  .00033958  00000+0  16429-2 0  9998
2 58927  97.4068 125.3497 0010206 242.5264 117.4933 15.18465194  1713
PACE                    
1 58928U 24025A   24047.79080464  .00001404  00000+0  27410-3 0  9995
2 58928  98.0877 341.2664 0003906 127.2221 232.9339 14.64455033  1247
COSMOS 2575             
1 58929U 24026A   24046.66901038  .00035644  00000+0  27515-3 0  9990
2 58929  96.7542 305.0584 0008338  18.5041  66.3270 15.71814068  1000
SL-4 R/B                
1 58930U 24026B   24048.17676717  .00080425  00000+0  57919-3 0  9991
2 58930  96.7579 306.5459 0005315   1.9664 358.1621 15.73322563  1220
DRUMS TARGET-2          
1 58954U 21102N   24043.68002782  .00024286  00000+0  15507-2 0  9994
2 58954  97.4501  94.6710 0018702 321.7083  38.2817 15.08507723  6887
2024-028A               
1 58955U 24028A   24047.96931957 -.00000078  00000+0  00000+0 0  9998
2 58955  39.9924 353.9460 0008330   1.8532 358.2244 13.70227718   289
2024-028B               
1 58956U 24028B   24047.96924600 -.00000078  00000+0  00000+0 0  9996
2 58956  39.9934 353.9394 0008454   4.5814 355.5009 13.70278365   279
2024-028C               
1 58957U 24028C   24047.96917355 -.00000078  00000+0  00000+0 0  9996
2 58957  39.9911 353.9525 0005677 358.0007   2.0720 13.70326359   277
2024-028D               
1 58958U 24028D   24047.96909947 -.00000078  00000+0  00000+0 0  9995
2 58958  39.9913 353.9427 0006509   5.8436 354.2385 13.70379935   276
2024-028E               
1 58959U 24028E   24047.31307504 -.00000078  00000+0  00000+0 0  9996
2 58959  39.9938 356.9605 0008147   5.5161 354.5672 13.70425066   186
2024-028F               
1 58960U 24028F   24047.96890667 -.00000078  00000+0  00000+0 0  9996
2 58960  39.9949 353.9448 0008692  11.2195 348.8745 13.70514269   279
