OBJECT_NAME,OBJECT_ID,EPOCH,MEAN_MOTION,ECCENTRICITY,INCLINATION,RA_OF_ASC_NODE,ARG_OF_PERICENTER,MEAN_ANOMALY,EPHEMERIS_TYPE,CLASSIFICATION_TYPE,NORAD_CAT_ID,ELEMENT_SET_NO,REV_AT_EPOCH,BSTAR,MEAN_MOTION_DOT,MEAN_MOTION_DDOT
2024-023C,2024-023C,2024-02-17T04:26:19.714560,14.89447886,0.0007564,50.0018,10.6711,325.7652,34.2801,0,U,58907,999,211,0.00053962,4.956e-05,0
2024-023D,2024-023D,2024-02-17T04:25:37.829568,14.89498627,0.0008069,49.9934,10.6581,326.7226,33.3206,0,U,58908,999,211,0.00054716,5.036e-05,0
2024-023E,2024-023E,2024-02-17T04:13:37.605216,14.90783039,0.0010885,50.0063,10.6221,300.3138,59.6727,0,U,58909,999,211,0.00070852,6.816e-05,0
2024-023F,2024-023F,2024-02-17T04:23:23.660736,14.89701432,0.000893,49.9904,10.6449,330.1584,29.8846,0,U,58910,999,211,0.00084446,7.948e-05,0
2024-023G,2024-023G,2024-02-17T04:20:14.709984,14.89920461,0.0008822,50.0077,10.6524,337.3436,22.7115,0,U,58911,999,211,0.00070326,6.614e-05,0
2024-023H,2024-023H,2024-02-17T04:18:32.999040,14.90056029,0.0009852,49.9917,10.6255,338.253,21.7991,0,U,58912,999,211,0.00079293,7.516e-05,0
2024-023J,2024-023J,2024-02-17T04:07:08.104512,14.91329577,0.0008008,50.0065,10.5939,314.1987,45.8297,0,U,58913,999,211,0.00071682,6.993e-05,0
2024-023K,2024-023K,2024-02-17T04:31:30.777888,14.88137033,0.0017299,49.9967,10.6873,6.6749,353.4419,0,U,58914,999,211,0.00069548,6.258e-05,0
2024-023L,2024-023L,2024-02-17T04:14:44.940192,14.90335617,0.0010601,50.0017,10.6211,343.8686,16.1916,0,U,58915,999,211,0.00080033,7.643e-05,0
2024-023M,2024-023M,2024-02-17T04:17:24.463968,14.68892708,0.00993,49.8987,12.4812,284.8389,74.156,0,U,58916,999,208,0.00031634,1.791e-05,0
2024-024A,2024-024A,2024-02-17T03:35:40.699968,15.17649404,0.0008618,97.403,125.3357,226.9435,133.1078,0,U,58917,999,213,0.0010542,0.00021217,0
2024-024B,2024-024B,2024-02-17T03:36:51.508224,15.17451259,0.001023,97.4037,125.3355,229.8529,130.1809,0,U,58918,999,212,0.00071704,0.00014321,0
2024-024C,2024-024C,2024-02-17T03:32:23.780544,15.17849401,0.0009358,97.4034,125.3386,238.0822,121.9502,0,U,58919,999,212,0.00091257,0.0001846,0
2024-024D,2024-024D,2024-02-17T03:31:14.348640,15.17990621,0.0009308,97.4048,125.3425,239.1199,120.912,0,U,58920,999,212,0.0010735,0.00021825,0
2024-024E,2024-024E,2024-02-17T03:33:19.191456,15.17614889,0.0009956,97.3985,125.3286,237.3656,122.6618,0,U,58921,999,212,0.00036576,7.299e-05,0
2024-024F,2024-024F,2024-02-17T03:30:44.342784,15.179435,0.0010231,97.3984,125.3301,240.9038,119.1172,0,U,58922,999,212,0.00081899,0.00016604,0
2024-024G,2024-024G,2024-02-17T03:29:15.034560,15.18139584,0.0010173,97.4062,125.3473,242.0881,117.9323,0,U,58923,999,212,0.0010749,0.00021952,0
2024-024H,2024-024H,2024-02-17T00:19:49.171584,15.18070313,0.001064,97.4034,125.2117,240.9558,119.0611,0,U,58924,999,3882,0.0009083,0.00018496,0
2024-024J,2024-024J,2024-02-17T03:30:02.967552,15.17949696,0.0010978,97.4036,125.3416,241.3248,118.6883,0,U,58925,999,3883,0.00063662,0.0001289,0
2024-024K,2024-024K,2024-02-16T21:08:09.980448,15.67618992,0.0235391,97.414,126.0621,286.8048,70.7513,0,U,58926,999,3885,0.0007748,0.00442105,2.3184e-06
2024-024L,2024-024L,2024-02-17T03:27:19.391616,15.18465194,0.0010206,97.4068,125.3497,242.5264,117.4933,0,U,58927,999,171,0.0016429,0.00033958,0
PACE,2024-025A,2024-02-16T18:58:45.520896,14.64455033,0.0003906,98.0877,341.2664,127.2221,232.9339,0,U,58928,999,124,0.0002741,1.404e-05,0
COSMOS 2575,2024-026A,2024-02-15T16:03:22.496832,15.71814068,0.0008338,96.7542,305.0584,18.5041,66.327,0,U,58929,999,100,0.00027515,0.00035644,0
SL-4 R/B,2024-026B,2024-02-17T04:14:32.683488,15.73322563,0.0005315,96.7579,306.5459,1.9664,358.1621,0,U,58930,999,122,0.00057919,0.00080425,0
DRUMS TARGET-2,2021-102N,2024-02-12T16:19:14.403648,15.08507723,0.0018702,97.4501,94.671,321.7083,38.2817,0,U,58954,999,688,0.0015507,0.00024286,0
2024-028A,2024-028A,2024-02-16T23:15:49.210848,13.70227718,0.000833,39.9924,353.946,1.8532,358.2244,0,U,58955,999,28,0,-7.8e-07,0
2024-028B,2024-028B,2024-02-16T23:15:42.854400,13.70278365,0.0008454,39.9934,353.9394,4.5814,355.5009,0,U,58956,999,27,0,-7.8e-07,0
2024-028C,2024-028C,2024-02-16T23:15:36.594720,13.70326359,0.0005677,39.9911,353.9525,358.0007,2.072,0,U,58957,999,27,0,-7.8e-07,0
2024-028D,2024-028D,2024-02-16T23:15:30.194208,13.70379935,0.0006509,39.9913,353.9427,5.8436,354.2385,0,U,58958,999,27,0,-7.8e-07,0
2024-028E,2024-028E,2024-02-16T07:30:49.683456,13.70425066,0.0008147,39.9938,356.9605,5.5161,354.5672,0,U,58959,999,18,0,-7.8e-07,0
2024-028F,2024-028F,2024-02-16T23:15:13.536288,13.70514269,0.0008692,39.9949,353.9448,11.2195,348.8745,0,U,58960,999,27,0,-7.8e-07,0
